ONEWEB-0256             
1 48974U 21060H   24001.16484278  .00000052  00000+0  10356-3 0  9992
2 48974  87.9055  47.5210 0001631  98.9676 261.1639 13.16594858122758
ONEWEB-0257             
1 48975U 21060J   24001.12268029  .00000124  00000+0  29050-3 0  9994
2 48975  87.9061  47.5040 0001690 104.9814 255.1504 13.16596533122705
ONEWEB-0259             
1 48977U 21060L   24001.11846785  .00000166  00000+0  40101-3 0  9992
2 48977  87.9063  47.5189 0002134  99.2225 260.9147 13.16592358122741
ONEWEB-0260             
1 48978U 21060M   23365.65614867  .00000062  00000+0  12921-3 0  9992
2 48978  87.9063  47.6410 0001174 115.6439 244.4813 13.16594820121374
ONEWEB-0261             
1 48979U 21060N   23365.62236761 -.00000037  00000+0 -12923-3 0  9999
2 48979  87.9058  47.6367 0002025 113.8354 246.2989 13.16595143121421
ONEWEB-0262             
1 48980U 21060P   23365.67936844 -.00000051  00000+0 -16673-3 0  9997
2 48980  87.9062  47.5927 0002294 101.1382 259.0007 13.16595184121392
ONEWEB-0263             
1 48981U 21060Q   23365.63503212  .00000014  00000+0  17216-5 0  9996
2 48981  87.9057  47.6144 0002175 110.8697 249.2667 13.16595417121351
